STARLINK-2194
1 27771C 21017BB  21325.14079542  .00006951  00000-0  46583-3 0  3255
2 27771  53.0564  52.5888 0001401  64.4509 350.8351 15.06384710    12
